NORAD_CAT_ID,OBJECT_NAME,OBJECT_TYPE,EPOCH,MEAN_MOTION,ECCENTRICITY,INCLINATION,RA_OF_ASC_NODE,ARG_OF_PERICENTER,MEAN_ANOMALY,BSTAR,MEAN_MOTION_DOT,MEAN_MOTION_DDOT,TLE_LINE0,TLE_LINE1,TLE_LINE2,SEMIMAJOR_AXIS,PERIOD,APOGEE,PERIGEE,DECAYED
52455.0,STARLINK-3890,PAYLOAD,2024-03-11 09:24:51,15.08839002,0.0001687,53.2174,98.5755,86.3804,273.7381,9.1534e-05,1.169e-05,0.0,0 STARLINK-3890,1 52455U 22049E   24071.39226144  .00001169  00000-0  91534-4 0  9996,2 52455  53.2174  98.5755 0001687  86.3804 273.7381 15.08839002102162,6917.883,95.438,540.915,538.581,0.0
52455.0,STARLINK-3890,PAYLOAD,2024-03-11 18:57:09,15.088531,0.0001791,53.2183,96.7872,77.2287,282.8905,3.0002e-05,1.9e-06,0.0,0 STARLINK-3890,1 52455U 22049E   24071.78969238  .00000190  00000-0  30002-4 0  9993,2 52455  53.2183  96.7872 0001791  77.2287 282.8905 15.08853100102384,6917.84,95.437,540.944,538.466,0.0
52455.0,STARLINK-3890,PAYLOAD,2024-03-12 10:51:01,15.08842052,0.0001693,53.217,93.8137,88.0678,272.0508,5.1462e-05,5.31e-06,0.0,0 STARLINK-3890,1 52455U 22049E   24072.45209925  .00000531  00000-0  51462-4 0  9990,2 52455  53.2170  93.8137 0001693  88.0678 272.0508 15.08842052102482,6917.874,95.437,540.91,538.568,0.0
52455.0,STARLINK-3890,PAYLOAD,2024-03-12 18:47:56,15.08846432,0.0001737,53.2172,92.3283,86.7766,273.3425,7.9095e-05,9.71e-06,0.0,0 STARLINK-3890,1 52455U 22049E   24072.78329523  .00000971  00000-0  79095-4 0  9993,2 52455  53.2172  92.3283 0001737  86.7766 273.3425 15.08846432102378,6917.861,95.437,540.927,538.524,0.0
52455.0,STARLINK-3890,PAYLOAD,2024-03-13 07:31:01,15.08853862,0.0001522,53.2167,89.9496,90.4242,269.6925,0.00016644,2.363e-05,0.0,0 STARLINK-3890,1 52455U 22049E   24073.31320679  .00002363  00000-0  16644-3 0  9993,2 52455  53.2167  89.9496 0001522  90.4242 269.6925 15.08853862102618,6917.838,95.437,540.756,538.65,0.0
52455.0,STARLINK-3890,PAYLOAD,2024-03-14 04:11:02,15.08831815,0.0001837,53.2187,86.0831,100.0926,260.0273,-3.8147e-05,-8.95e-06,0.0,0 STARLINK-3890,1 52455U 22049E   24074.17433976 -.00000895  00000-0 -38147-4 0  9996,2 52455  53.2187  86.0831 0001837 100.0926 260.0273 15.08831815102746,6917.905,95.438,541.041,538.5,0.0
52455.0,STARLINK-3890,PAYLOAD,2024-03-14 07:21:49,15.08830417,0.0001874,53.2181,85.489,95.1663,264.9544,-4.729e-05,-1.04e-05,0.0,0 STARLINK-3890,1 52455U 22049E   24074.30682178 -.00001040  00000-0 -47290-4 0  9993,2 52455  53.2181  85.4890 0001874  95.1663 264.9544 15.08830417102607,6917.91,95.438,541.071,538.478,0.0
52455.0,STARLINK-3890,PAYLOAD,2024-03-14 10:32:35,15.08831088,0.0001846,53.2171,84.8934,100.4495,259.6705,-5.2669e-05,-1.126e-05,0.0,0 STARLINK-3890,1 52455U 22049E   24074.43930160 -.00001126  00000-0 -52669-4 0  9995,2 52455  53.2171  84.8934 0001846 100.4495 259.6705 15.08831088102627,6917.908,95.438,541.05,538.496,0.0
52455.0,STARLINK-3890,PAYLOAD,2024-03-15 07:12:36,15.08840881,0.0001722,53.2173,81.0275,98.9172,261.2015,-0.00010552,-1.967e-05,0.0,0 STARLINK-3890,1 52455U 22049E   24075.30041951 -.00001967  00000-0 -10552-3 0  9990,2 52455  53.2173  81.0275 0001722  98.9172 261.2015 15.08840881102918,6917.878,95.437,540.934,538.551,0.0
52455.0,STARLINK-3890,PAYLOAD,2024-03-16 03:52:37,15.08827374,0.0001747,53.2172,77.1619,102.7297,257.3891,0.00013746,1.9e-05,0.0,0 STARLINK-3890,1 52455U 22049E   24076.16154458  .00001900  00000-0  13746-3 0  9995,2 52455  53.2172  77.1619 0001747 102.7297 257.3891 15.08827374103049,6917.919,95.438,540.993,538.575,0.0
52455.0,STARLINK-3890,PAYLOAD,2024-03-16 07:03:23,15.08828275,0.000175,53.2174,76.5674,102.6516,257.4672,0.00014431,2.009e-05,0.0,0 STARLINK-3890,1 52455U 22049E   24076.29402557  .00002009  00000-0  14431-3 0  9998,2 52455  53.2174  76.5674 0001750 102.6516 257.4672 15.08828275102905,6917.916,95.438,540.992,538.571,0.0
52455.0,STARLINK-3890,PAYLOAD,2024-03-17 05:18:47,15.08837267,0.0001739,53.2177,72.4065,105.9665,254.1519,0.00013315,1.832e-05,0.0,0 STARLINK-3890,1 52455U 22049E   24077.22138605  .00001832  00000-0  13315-3 0  9995,2 52455  53.2177  72.4065 0001739 105.9665 254.1519 15.08837267103204,6917.889,95.438,540.957,538.551,0.0
52455.0,STARLINK-3890,PAYLOAD,2024-03-18 06:44:58,15.08839409,0.0001627,53.2175,67.6489,104.1411,255.9762,0.00010063,1.314e-05,0.0,0 STARLINK-3890,1 52455U 22049E   24078.28122775  .00001314  00000-0  10063-3 0  9995,2 52455  53.2175  67.6489 0001627 104.1411 255.9762 15.08839409103360,6917.882,95.438,540.873,538.622,0.0
52455.0,STARLINK-3890,PAYLOAD,2024-03-18 22:38:49,15.08842553,0.0001596,53.2176,64.6741,98.3345,261.7829,9.4701e-05,1.22e-05,0.0,0 STARLINK-3890,1 52455U 22049E   24078.94362643  .00001220  00000-0  94701-4 0  9996,2 52455  53.2176  64.6741 0001596  98.3345 261.7829 15.08842553103301,6917.873,95.437,540.842,538.633,0.0
52455.0,STARLINK-3890,PAYLOAD,2024-03-19 08:11:07,15.08860289,0.0001657,53.2169,62.8904,97.2271,262.8909,0.00033977,5.127e-05,0.0,0 STARLINK-3890,1 52455U 22049E   24079.34105496  .00005127  00000-0  33977-3 0  9999,2 52455  53.2169  62.8904 0001657  97.2271 262.8909 15.08860289103529,6917.818,95.436,540.83,538.537,0.0
52455.0,STARLINK-3890,PAYLOAD,2024-03-20 04:51:07,15.0885117,0.0001522,53.2172,59.0273,125.0198,235.0937,0.00017997,2.578e-05,0.0,0 STARLINK-3890,1 52455U 22049E   24080.20217504  .00002578  00000-0  17997-3 0  9991,2 52455  53.2172  59.0273 0001522 125.0198 235.0937 15.08851170103655,6917.846,95.437,540.764,538.658,0.0
52455.0,STARLINK-3890,PAYLOAD,2024-03-21 04:41:55,15.08844891,0.0001636,53.2184,54.5604,113.5681,246.5483,-0.00011316,-2.089e-05,0.0,0 STARLINK-3890,1 52455U 22049E   24081.19578377 -.00002089  00000-0 -11316-3 0  9996,2 52455  53.2184  54.5604 0001636 113.5681 246.5483 15.08844891103803,6917.865,95.437,540.862,538.599,0.0
52455.0,STARLINK-3890,PAYLOAD,2024-03-21 07:52:41,15.08846874,0.0001535,53.2182,53.9665,100.1638,259.9527,-9.6812e-05,-1.829e-05,0.0,0 STARLINK-3890,1 52455U 22049E   24081.32826227 -.00001829  00000-0 -96812-4 0  9997,2 52455  53.2182  53.9665 0001535 100.1638 259.9527 15.08846874103667,6917.859,95.437,540.786,538.662,0.0
52455.0,STARLINK-3890,PAYLOAD,2024-03-22 02:57:19,15.0883688,0.0001554,53.2181,50.3979,100.8936,259.2231,0.00012959,1.775e-05,0.0,0 STARLINK-3890,1 52455U 22049E   24082.12314205  .00001775  00000-0  12959-3 0  9991,2 52455  53.2181  50.3979 0001554 100.8936 259.2231 15.08836880103788,6917.89,95.438,540.83,538.68,0.0
52455.0,STARLINK-3890,PAYLOAD,2024-03-22 22:01:57,15.08833579,0.0001466,53.2179,46.8307,97.2081,262.9078,5.3351e-05,5.61e-06,0.0,0 STARLINK-3890,1 52455U 22049E   24082.91803031  .00000561  00000-0  53351-4 0  9992,2 52455  53.2179  46.8307 0001466  97.2081 262.9078 15.08833579103908,6917.9,95.438,540.779,538.751,0.0
52455.0,STARLINK-3890,PAYLOAD,2024-03-23 04:23:31,15.08822601,0.0001433,53.2182,45.6403,92.1102,268.0055,-2.358e-05,-6.63e-06,0.0,0 STARLINK-3890,1 52455U 22049E   24083.18300213 -.00000663  00000-0 -23580-4 0  9992,2 52455  53.2182  45.6403 0001433  92.1102 268.0055 15.08822601104107,6917.934,95.439,540.79,538.807,0.0
52455.0,STARLINK-3890,PAYLOAD,2024-03-23 21:52:45,15.08834492,0.0001322,53.2197,42.3731,93.7456,266.3688,8.9534e-05,1.137e-05,0.0,0 STARLINK-3890,1 52455U 22049E   24083.91163499  .00001137  00000-0  89534-4 0  9992,2 52455  53.2197  42.3731 0001322  93.7456 266.3688 15.08834492104213,6917.897,95.438,540.677,538.848,0.0
52455.0,STARLINK-3890,PAYLOAD,2024-03-24 04:14:16,15.08850958,0.0001698,53.2196,41.1846,106.4385,253.6794,0.00021822,3.188e-05,0.0,0 STARLINK-3890,1 52455U 22049E   24084.17658207  .00003188  00000-0  21822-3 0  9990,2 52455  53.2196  41.1846 0001698 106.4385 253.6794 15.08850958104251,6917.847,95.437,540.887,538.537,0.0
52455.0,STARLINK-3890,PAYLOAD,2024-03-24 07:25:03,15.0885273,0.0001679,53.2183,40.5814,100.932,259.1861,0.00031495,4.73e-05,0.0,0 STARLINK-3890,1 52455U 22049E   24084.30906505  .00004730  00000-0  31495-3 0  9993,2 52455  53.2183  40.5814 0001679 100.9320 259.1861 15.08852730104113,6917.841,95.437,540.868,538.545,0.0
52455.0,STARLINK-3890,PAYLOAD,2024-03-25 05:40:26,15.08856285,0.0001262,53.2195,36.4242,66.1665,293.9459,0.00037922,5.755e-05,0.0,0 STARLINK-3890,1 52455U 22049E   24085.23641944  .00005755  00000-0  37922-3 0  9998,2 52455  53.2195  36.4242 0001262  66.1665 293.9459 15.08856285104419,6917.831,95.437,540.569,538.823,0.0
52455.0,STARLINK-3890,PAYLOAD,2024-03-25 13:37:23,15.08853183,0.0001332,53.218,34.9357,79.1331,280.9811,0.0002682,3.985e-05,0.0,0 STARLINK-3890,1 52455U 22049E   24085.56762741  .00003985  00000-0  26820-3 0  9991,2 52455  53.2180  34.9357 0001332  79.1331 280.9811 15.08853183104462,6917.84,95.437,540.627,538.784,0.0
52455.0,STARLINK-3890,PAYLOAD,2024-03-26 05:31:16,15.08823588,0.0001419,53.2187,31.9597,109.4443,250.6703,-0.00022644,-3.888e-05,0.0,0 STARLINK-3890,1 52455U 22049E   24086.23004809 -.00003888  00000-0 -22644-3 0  9994,2 52455  53.2187  31.9597 0001419 109.4443 250.6703 15.08823588104560,6917.931,95.439,540.777,538.814,0.0
52455.0,STARLINK-3890,PAYLOAD,2024-03-26 13:28:11,15.08834044,0.0001513,53.2195,30.4785,100.9155,259.2007,-7.7729e-05,-1.525e-05,0.0,0 STARLINK-3890,1 52455U 22049E   24086.56124814 -.00001525  00000-0 -77729-4 0  9990,2 52455  53.2195  30.4785 0001513 100.9155 259.2007 15.08834044104610,6917.899,95.438,540.81,538.717,0.0
52455.0,STARLINK-3890,PAYLOAD,2024-03-27 03:46:39,15.08850206,0.0001274,53.2183,27.8024,94.3982,265.7156,0.00063309,9.805e-05,0.0,0 STARLINK-3890,1 52455U 22049E   24087.15740666  .00009805  00000-0  63309-3 0  9990,2 52455  53.2183  27.8024 0001274  94.3982 265.7156 15.08850206104706,6917.849,95.437,540.596,538.833,0.0
52455.0,STARLINK-3890,PAYLOAD,2024-03-27 13:18:57,15.08870671,0.0001292,53.2186,26.0177,82.0725,278.0413,0.00080698,0.00012589,0.0,0 STARLINK-3890,1 52455U 22049E   24087.55483377  .00012589  00000-0  80698-3 0  9990,2 52455  53.2186  26.0177 0001292  82.0725 278.0413 15.08870671104765,6917.787,95.436,540.545,538.758,0.0
